[{"OBJECT_NAME":"TIANMU-1 13","OBJECT_ID":"2023-205C","EPOCH":"2026-03-10T00:00:50.036832","MEAN_MOTION":15.25862583,"ECCENTRICITY":0.00064025,"INCLINATION":97.3565,"RA_OF_ASC_NODE":92.1641,"ARG_OF_PERICENTER":331.9635,"MEAN_ANOMALY":28.1258,"EPHEMERIS_TYPE":0,"CLASSIFICATION_TYPE":"U","NORAD_CAT_ID":58647,"ELEMENT_SET_NO":999,"REV_AT_EPOCH":12237,"BSTAR":0.00032666188,"MEAN_MOTION_DOT":8.299e-5,"MEAN_MOTION_DDOT":0},{"OBJECT_NAME":"STARLINK-31804","OBJECT_ID":"2024-082L","EPOCH":"2026-03-09T13:09:53.428320","MEAN_MOTION":15.27565095,"ECCENTRICITY":8.51e-5,"INCLINATION":42.9984,"RA_OF_ASC_NODE":140.317,"ARG_OF_PERICENTER":242.8733,"MEAN_ANOMALY":117.2032,"EPHEMERIS_TYPE":0,"CLASSIFICATION_TYPE":"U","NORAD_CAT_ID":59641,"ELEMENT_SET_NO":999,"REV_AT_EPOCH":10479,"BSTAR":-5.0156e-5,"MEAN_MOTION_DOT":-1.641e-5,"MEAN_MOTION_DDOT":0}]
